{
  "type": "FeatureCollection",
  "features": [
    {
      "type": "Feature",
      "properties": {
        "norad_id": 44334,
        "name": "EUTELSAT 7C",
        "group": "eutelsat",
        "lat": -0.0007219875671055551,
        "lon": -163.82036274195622,
        "alt_km": 35775.921465328356,
        "timestamp": "2025-12-07T07:31:35.974428+00:00",
        "meta_object_name": "EUTELSAT 7C",
        "meta_object_id": "2019-034B",
        "meta_epoch": "2025-12-06T03:25:30.364320",
        "meta_mean_motion": 1.00270039,
        "meta_eccentricity": 0.00034504,
        "meta_inclination": 0.0751,
        "meta_ra_of_asc_node": 179.1623,
        "meta_arg_of_pericenter": 60.529,
        "meta_mean_anomaly": 253.8532,
        "meta_ephemeris_type": 0,
        "meta_classification_type": "U",
        "meta_norad_cat_id": 44334,
        "meta_element_set_no": 999,
        "meta_rev_at_epoch": 490,
        "meta_bstar": 0,
        "meta_mean_motion_dot": 5.6e-07,
        "meta_mean_motion_ddot": 0,
        "tle_line1": "1 44334U 19034B   25340.14271255  .00000056  00000+0  00000+0 0  9995",
        "tle_line2": "2 44334   0.0751 179.1623 0003450  60.5290 253.8532  1.00270039  4909"
      },
      "geometry": {
        "type": "Point",
        "coordinates": [
          -163.82036274195622,
          -0.0007219875671055551
        ]
      }
    },
    {
      "type": "Feature",
      "properties": {
        "norad_id": 44624,
        "name": "EUTELSAT 5 WEST B",
        "group": "eutelsat",
        "lat": -0.04220920965380324,
        "lon": -175.80798383628257,
        "alt_km": 35781.87501759765,
        "timestamp": "2025-12-07T07:31:35.974454+00:00",
        "meta_object_name": "EUTELSAT 5 WEST B",
        "meta_object_id": "2019-067A",
        "meta_epoch": "2025-12-06T22:06:38.876256",
        "meta_mean_motion": 1.00270528,
        "meta_eccentricity": 0.00035934,
        "meta_inclination": 0.0663,
        "meta_ra_of_asc_node": 336.1801,
        "meta_arg_of_pericenter": 280.5987,
        "meta_mean_anomaly": 145.8386,
        "meta_ephemeris_type": 0,
        "meta_classification_type": "U",
        "meta_norad_cat_id": 44624,
        "meta_element_set_no": 999,
        "meta_rev_at_epoch": 2250,
        "meta_bstar": 0,
        "meta_mean_motion_dot": -3.7e-07,
        "meta_mean_motion_ddot": 0,
        "tle_line1": "1 44624U 19067A   25340.92128329 -.00000037  00000+0  00000+0 0  9992",
        "tle_line2": "2 44624   0.0663 336.1801 0003593 280.5987 145.8386  1.00270528 22507"
      },
      "geometry": {
        "type": "Point",
        "coordinates": [
          -175.80798383628257,
          -0.04220920965380324
        ]
      }
    },
    {
      "type": "Feature",
      "properties": {
        "norad_id": 45027,
        "name": "EUTELSAT KONNECT",
        "group": "eutelsat",
        "lat": 0.05277063507281364,
        "lon": -163.62106788898868,
        "alt_km": 35786.94969071402,
        "timestamp": "2025-12-07T07:31:35.974468+00:00",
        "meta_object_name": "EUTELSAT KONNECT",
        "meta_object_id": "2020-005B",
        "meta_epoch": "2025-12-05T22:17:29.870880",
        "meta_mean_motion": 1.00267987,
        "meta_eccentricity": 0.00018557,
        "meta_inclination": 0.0712,
        "meta_ra_of_asc_node": 98.3329,
        "meta_arg_of_pericenter": 187.648,
        "meta_mean_anomaly": 130.555,
        "meta_ephemeris_type": 0,
        "meta_classification_type": "U",
        "meta_norad_cat_id": 45027,
        "meta_element_set_no": 999,
        "meta_rev_at_epoch": 2238,
        "meta_bstar": 0,
        "meta_mean_motion_dot": 5.8e-07,
        "meta_mean_motion_ddot": 0,
        "tle_line1": "1 45027U 20005B   25339.92881795  .00000058  00000+0  00000+0 0  9997",
        "tle_line2": "2 45027   0.0712  98.3329 0001855 187.6480 130.5550  1.00267987 22381"
      },
      "geometry": {
        "type": "Point",
        "coordinates": [
          -163.62106788898868,
          0.05277063507281364
        ]
      }
    },
    {
      "type": "Feature",
      "properties": {
        "norad_id": 49056,
        "name": "EUTELSAT QUANTUM",
        "group": "eutelsat",
        "lat": -0.023437953010411103,
        "lon": -123.0924515101105,
        "alt_km": 35772.88322357004,
        "timestamp": "2025-12-07T07:31:35.974480+00:00",
        "meta_object_name": "EUTELSAT QUANTUM",
        "meta_object_id": "2021-069B",
        "meta_epoch": "2025-12-06T21:26:45.790656",
        "meta_mean_motion": 1.00270716,
        "meta_eccentricity": 0.00037203,
        "meta_inclination": 0.0281,
        "meta_ra_of_asc_node": 44.9429,
        "meta_arg_of_pericenter": 223.4477,
        "meta_mean_anomaly": 176.9261,
        "meta_ephemeris_type": 0,
        "meta_classification_type": "U",
        "meta_norad_cat_id": 49056,
        "meta_element_set_no": 999,
        "meta_rev_at_epoch": 1600,
        "meta_bstar": 0,
        "meta_mean_motion_dot": 1.32e-06,
        "meta_mean_motion_ddot": 0,
        "tle_line1": "1 49056U 21069B   25340.89358554  .00000132  00000+0  00000+0 0  9997",
        "tle_line2": "2 49056   0.0281  44.9429 0003720 223.4477 176.9261  1.00270716 16003"
      },
      "geometry": {
        "type": "Point",
        "coordinates": [
          -123.0924515101105,
          -0.023437953010411103
        ]
      }
    },
    {
      "type": "Feature",
      "properties": {
        "norad_id": 53765,
        "name": "EUTELSAT KONNECT VHTS",
        "group": "eutelsat",
        "lat": 0.04341136633339903,
        "lon": -168.09482799861394,
        "alt_km": 35778.360460985554,
        "timestamp": "2025-12-07T07:31:35.974492+00:00",
        "meta_object_name": "EUTELSAT KONNECT VHTS",
        "meta_object_id": "2022-110A",
        "meta_epoch": "2025-12-06T21:58:38.690976",
        "meta_mean_motion": 1.0026987,
        "meta_eccentricity": 0.00027281,
        "meta_inclination": 0.063,
        "meta_ra_of_asc_node": 106.113,
        "meta_arg_of_pericenter": 130.1187,
        "meta_mean_anomaly": 172.0757,
        "meta_ephemeris_type": 0,
        "meta_classification_type": "U",
        "meta_norad_cat_id": 53765,
        "meta_element_set_no": 999,
        "meta_rev_at_epoch": 489,
        "meta_bstar": 0,
        "meta_mean_motion_dot": 2.3e-07,
        "meta_mean_motion_ddot": 0,
        "tle_line1": "1 53765U 22110A   25340.91572559  .00000023  00000+0  00000+0 0  9992",
        "tle_line2": "2 53765   0.0630 106.1130 0002728 130.1187 172.0757  1.00269870  4892"
      },
      "geometry": {
        "type": "Point",
        "coordinates": [
          -168.09482799861394,
          0.04341136633339903
        ]
      }
    },
    {
      "type": "Feature",
      "properties": {
        "norad_id": 54048,
        "name": "EUTELSAT HOTBIRD 13F",
        "group": "eutelsat",
        "lat": -0.06197034318700739,
        "lon": -157.7704513130652,
        "alt_km": 35793.62286730383,
        "timestamp": "2025-12-07T07:31:35.974503+00:00",
        "meta_object_name": "EUTELSAT HOTBIRD 13F",
        "meta_object_id": "2022-134A",
        "meta_epoch": "2025-12-06T21:50:38.745024",
        "meta_mean_motion": 1.00273163,
        "meta_eccentricity": 0.00021775,
        "meta_inclination": 0.0467,
        "meta_ra_of_asc_node": 293.5462,
        "meta_arg_of_pericenter": 59.1956,
        "meta_mean_anomaly": 63.8704,
        "meta_ephemeris_type": 0,
        "meta_classification_type": "U",
        "meta_norad_cat_id": 54048,
        "meta_element_set_no": 999,
        "meta_rev_at_epoch": 1144,
        "meta_bstar": 0,
        "meta_mean_motion_dot": 9.3e-07,
        "meta_mean_motion_ddot": 0,
        "tle_line1": "1 54048U 22134A   25340.91017066  .00000093  00000+0  00000+0 0  9997",
        "tle_line2": "2 54048   0.0467 293.5462 0002177  59.1956  63.8704  1.00273163 11444"
      },
      "geometry": {
        "type": "Point",
        "coordinates": [
          -157.7704513130652,
          -0.06197034318700739
        ]
      }
    },
    {
      "type": "Feature",
      "properties": {
        "norad_id": 54225,
        "name": "EUTELSAT HOTBIRD 13G",
        "group": "eutelsat",
        "lat": -0.034954820245501506,
        "lon": -157.77542791344345,
        "alt_km": 35778.48210567136,
        "timestamp": "2025-12-07T07:31:35.974516+00:00",
        "meta_object_name": "EUTELSAT HOTBIRD 13G",
        "meta_object_id": "2022-146A",
        "meta_epoch": "2025-12-05T15:28:18.292224",
        "meta_mean_motion": 1.00270321,
        "meta_eccentricity": 0.00019255,
        "meta_inclination": 0.0461,
        "meta_ra_of_asc_node": 235.0424,
        "meta_arg_of_pericenter": 313.1322,
        "meta_mean_anomaly": 131.5912,
        "meta_ephemeris_type": 0,
        "meta_classification_type": "U",
        "meta_norad_cat_id": 54225,
        "meta_element_set_no": 999,
        "meta_rev_at_epoch": 552,
        "meta_bstar": 0,
        "meta_mean_motion_dot": 9.7e-07,
        "meta_mean_motion_ddot": 0,
        "tle_line1": "1 54225U 22146A   25339.64465616  .00000097  00000+0  00000+0 0  9997",
        "tle_line2": "2 54225   0.0461 235.0424 0001925 313.1322 131.5912  1.00270321  5523"
      },
      "geometry": {
        "type": "Point",
        "coordinates": [
          -157.77542791344345,
          -0.034954820245501506
        ]
      }
    }
  ]
}